[{"OBJECT_NAME":"STARLINK-34958","OBJECT_ID":"2025-179C","EPOCH":"2026-03-09T16:22:17.904288","MEAN_MOTION":15.05622171,"ECCENTRICITY":0.00016486,"INCLINATION":97.6029,"RA_OF_ASC_NODE":112.9018,"ARG_OF_PERICENTER":109.5641,"MEAN_ANOMALY":250.5764,"EPHEMERIS_TYPE":0,"CLASSIFICATION_TYPE":"U","NORAD_CAT_ID":65237,"ELEMENT_SET_NO":999,"REV_AT_EPOCH":3196,"BSTAR":-0.0002252672,"MEAN_MOTION_DOT":-3.307e-5,"MEAN_MOTION_DDOT":0},{"OBJECT_NAME":"FENGYUN 1C DEB","OBJECT_ID":"1999-025AKL","EPOCH":"2026-03-09T14:47:46.011264","MEAN_MOTION":14.88806868,"ECCENTRICITY":0.0088849,"INCLINATION":98.9015,"RA_OF_ASC_NODE":300.2677,"ARG_OF_PERICENTER":245.5096,"MEAN_ANOMALY":169.9787,"EPHEMERIS_TYPE":0,"CLASSIFICATION_TYPE":"U","NORAD_CAT_ID":30546,"ELEMENT_SET_NO":999,"REV_AT_EPOCH":1749,"BSTAR":0.00087367,"MEAN_MOTION_DOT":8.737e-5,"MEAN_MOTION_DDOT":0}]
